[
  {
    "OBJECT_NAME": "LEGION 3",
    "OBJECT_ID": "2024-146A",
    "EPOCH": "2025-05-31T14:55:28.606368",
    "MEAN_MOTION": 15.156767,
    "ECCENTRICITY": 0.0022913,
    "INCLINATION": 45.0021,
    "RA_OF_ASC_NODE": 276.2659,
    "ARG_OF_PERICENTER": 192.9355,
    "MEAN_ANOMALY": 167.0938,
    "EPHEMERIS_TYPE": 0,
    "CLASSIFICATION_TYPE": "U",
    "NORAD_CAT_ID": 60452,
    "ELEMENT_SET_NO": 999,
    "REV_AT_EPOCH": 4412,
    "BSTAR": 0.00027845,
    "MEAN_MOTION_DOT": 5.158e-05,
    "MEAN_MOTION_DDOT": 0
  },
  {
    "OBJECT_NAME": "LEGION 4",
    "OBJECT_ID": "2024-146B",
    "EPOCH": "2025-05-30T00:56:49.900416",
    "MEAN_MOTION": 15.16506032,
    "ECCENTRICITY": 0.0007221,
    "INCLINATION": 45.0397,
    "RA_OF_ASC_NODE": 15.8044,
    "ARG_OF_PERICENTER": 218.9803,
    "MEAN_ANOMALY": 141.0557,
    "EPHEMERIS_TYPE": 0,
    "CLASSIFICATION_TYPE": "U",
    "NORAD_CAT_ID": 60453,
    "ELEMENT_SET_NO": 999,
    "REV_AT_EPOCH": 4273,
    "BSTAR": 0.00028988,
    "MEAN_MOTION_DOT": 5.485e-05,
    "MEAN_MOTION_DDOT": 0
  },
  {
    "OBJECT_NAME": "SENTINEL-2C",
    "OBJECT_ID": "2024-157A",
    "EPOCH": "2025-05-31T11:52:01.689600",
    "MEAN_MOTION": 14.30816006,
    "ECCENTRICITY": 0.0001214,
    "INCLINATION": 98.5687,
    "RA_OF_ASC_NODE": 226.8336,
    "ARG_OF_PERICENTER": 95.6423,
    "MEAN_ANOMALY": 264.4899,
    "EPHEMERIS_TYPE": 0,
    "CLASSIFICATION_TYPE": "U",
    "NORAD_CAT_ID": 60989,
    "ELEMENT_SET_NO": 999,
    "REV_AT_EPOCH": 3840,
    "BSTAR": 6.9745e-05,
    "MEAN_MOTION_DOT": 1.39e-06,
    "MEAN_MOTION_DDOT": 0
  },
  {
    "OBJECT_NAME": "BIOMASS",
    "OBJECT_ID": "2025-090A",
    "EPOCH": "2025-05-31T14:52:06.702528",
    "MEAN_MOTION": 14.67545868,
    "ECCENTRICITY": 0.0001366,
    "INCLINATION": 98.0758,
    "RA_OF_ASC_NODE": 339.3962,
    "ARG_OF_PERICENTER": 85.9473,
    "MEAN_ANOMALY": 274.1888,
    "EPHEMERIS_TYPE": 0,
    "CLASSIFICATION_TYPE": "U",
    "NORAD_CAT_ID": 63772,
    "ELEMENT_SET_NO": 999,
    "REV_AT_EPOCH": 472,
    "BSTAR": 0.00021474,
    "MEAN_MOTION_DOT": 1.17e-05,
    "MEAN_MOTION_DDOT": 0
  }
]