LEGION 3                
1 60452U 24146A   25151.62185887  .00005158  00000+0  27845-3 0  9990
2 60452  45.0021 276.2659 0022913 192.9355 167.0938 15.15676700 44122
LEGION 4                
1 60453U 24146B   25150.03946644  .00005485  00000+0  28988-3 0  9993
2 60453  45.0397  15.8044 0007221 218.9803 141.0557 15.16506032 42731
SENTINEL-2C             
1 60989U 24157A   25151.49446400  .00000139  00000+0  69745-4 0  9993
2 60989  98.5687 226.8336 0001214  95.6423 264.4899 14.30816006 38400
BIOMASS                 
1 63772U 25090A   25151.61952202  .00001170  00000+0  21474-3 0  9991
2 63772  98.0758 339.3962 0001366  85.9473 274.1888 14.67545868  4726
